ONEWEB-0275             
1 48993U 21060AC  25129.53357475  .00000030  00000+0  44476-4 0  9991
2 48993  87.9013 309.2399 0001659  90.5013 269.6308 13.16592639187732
ONEWEB-0276             
1 48994U 21060AD  25129.49083316  .00000119  00000+0  27692-3 0  9995
2 48994  87.9016 309.2452 0001583  99.3458 260.7852 13.16594988187759
ONEWEB-0277             
1 48995U 21060AE  25129.50350088  .00000065  00000+0  13572-3 0  9993
2 48995  87.9014 309.2796 0001310  91.3957 268.7324 13.16593891187735
ONEWEB-0278             
1 48996U 21060AF  25129.49399868  .00000118  00000+0  27508-3 0  9994
2 48996  87.9017 309.2415 0001912  98.0378 262.0970 13.16593595187887
ONEWEB-0279             
1 48997U 21060AG  25129.50191296  .00000092  00000+0  20586-3 0  9992
2 48997  87.9017 309.2362 0001439  86.3606 273.7689 13.16594074187808
ONEWEB-0280             
1 48998U 21060AH  25129.51696358  .00000073  00000+0  15743-3 0  9991
2 48998  87.9017 309.2387 0001591 103.2266 256.9042 13.16595682187730
ONEWEB-0281             
1 48999U 21060AJ  25129.52248998 -.00000007  00000+0 -51612-4 0  9991
2 48999  87.9016 309.2362 0001824  87.0516 273.0823 13.16592590187821
ONEWEB-0282             
1 49000U 21060AK  25128.94459806  .00000141  00000+0  33526-3 0  9992
2 49000  87.9012 309.3673 0001587  97.0626 263.0685 13.16593967186414
